NORAD_CAT_ID,OBJECT_NAME,OBJECT_TYPE,EPOCH,MEAN_MOTION,ECCENTRICITY,INCLINATION,RA_OF_ASC_NODE,ARG_OF_PERICENTER,MEAN_ANOMALY,BSTAR,MEAN_MOTION_DOT,MEAN_MOTION_DDOT,TLE_LINE0,TLE_LINE1,TLE_LINE2,SEMIMAJOR_AXIS,PERIOD,APOGEE,PERIGEE,DECAYED
53613.0,STARLINK-4655,PAYLOAD,2023-09-20 15:08:59,15.08805351,0.0001334,53.2162,319.2832,80.0622,280.0521,9.5844e-06,-1.35e-06,0.0,0 STARLINK-4655,1 53613U 22104AB  23263.63124066 -.00000135  00000-0  95844-5 0  9996,2 53613  53.2162 319.2832 0001334  80.0622 280.0521 15.08805351 59600,6917.986,95.44,540.774,538.928,0.0
53613.0,STARLINK-4655,PAYLOAD,2023-09-21 10:13:37,15.08829338,0.0001558,53.2161,315.7156,59.2453,300.8692,0.0010141,0.00015884,0.0,0 STARLINK-4655,1 53613U 22104AB  23264.42613392  .00015884  00000-0  10141-2 0  9999,2 53613  53.2161 315.7156 0001558  59.2453 300.8692 15.08829338 59158,6917.913,95.438,540.856,538.7,0.0
53613.0,STARLINK-4655,PAYLOAD,2023-09-21 14:59:47,15.08837989,0.0001561,53.2162,314.8232,59.9556,300.1591,0.0010577,0.00016584,0.0,0 STARLINK-4655,1 53613U 22104AB  23264.62485387  .00016584  00000-0  10577-2 0  9993,2 53613  53.2162 314.8232 0001561  59.9556 300.1591 15.08837989 59757,6917.887,95.438,540.831,538.672,0.0
53613.0,STARLINK-4655,PAYLOAD,2023-09-22 08:29:01,15.0887187,0.0001633,53.2164,311.5523,62.2669,297.8489,0.0012325,0.00019399,0.0,0 STARLINK-4655,1 53613U 22104AB  23265.35348467  .00019399  00000-0  12325-2 0  9991,2 53613  53.2164 311.5523 0001633  62.2669 297.8489 15.08871870 59292,6917.783,95.436,540.778,538.518,0.0
53613.0,STARLINK-4655,PAYLOAD,2023-09-22 13:15:10,15.08882594,0.0001624,53.2168,310.6584,67.5737,292.5427,0.0013506,0.00021297,0.0,0 STARLINK-4655,1 53613U 22104AB  23265.55219915  .00021297  00000-0  13506-2 0  9990,2 53613  53.2168 310.6584 0001624  67.5737 292.5427 15.08882594 59892,6917.75,95.435,540.739,538.492,0.0
53613.0,STARLINK-4655,PAYLOAD,2023-09-22 19:36:41,15.08895115,0.0001642,53.2167,309.469,66.9553,293.1612,0.0014175,0.00022378,0.0,0 STARLINK-4655,1 53613U 22104AB  23265.81715027  .00022378  00000-0  14175-2 0  9998,2 53613  53.2167 309.4690 0001642  66.9553 293.1612 15.08895115 59935,6917.712,95.434,540.713,538.441,0.0
53613.0,STARLINK-4655,PAYLOAD,2023-09-23 09:55:10,15.08863218,0.0001739,53.217,306.7927,60.41,299.7065,0.0013133,0.00020688,0.0,0 STARLINK-4655,1 53613U 22104AB  23266.41331321  .00020688  00000-0  13133-2 0  9991,2 53613  53.2170 306.7927 0001739  60.4100 299.7065 15.08863218 59456,6917.809,95.436,540.877,538.471,0.0
53613.0,STARLINK-4655,PAYLOAD,2023-09-23 13:05:56,15.08868642,0.0001554,53.2167,306.1988,65.7301,294.3853,0.0014313,0.00022582,0.0,0 STARLINK-4655,1 53613U 22104AB  23266.54579042  .00022582  00000-0  14313-2 0  9995,2 53613  53.2167 306.1988 0001554  65.7301 294.3853 15.08868642 60048,6917.793,95.436,540.733,538.583,0.0
53613.0,STARLINK-4655,PAYLOAD,2023-09-24 01:49:01,15.08863155,0.0001886,53.2171,303.821,87.2837,272.8371,0.0016977,0.00026852,0.0,0 STARLINK-4655,1 53613U 22104AB  23267.07571135  .00026852  00000-0  16977-2 0  9991,2 53613  53.2171 303.8210 0001886  87.2837 272.8371 15.08863155 59550,6917.81,95.436,540.979,538.37,0.0
53613.0,STARLINK-4655,PAYLOAD,2023-09-24 08:10:34,15.08838715,0.0001763,53.2173,302.6301,90.7967,269.3228,0.00047933,7.348e-05,0.0,0 STARLINK-4655,1 53613U 22104AB  23267.34067424  .00007348  00000-0  47933-3 0  9998,2 53613  53.2173 302.6301 0001763  90.7967 269.3228 15.08838715 59597,6917.884,95.438,540.969,538.53,0.0
53613.0,STARLINK-4655,PAYLOAD,2023-09-24 12:56:43,15.08848849,0.0001466,53.2167,301.7392,87.1822,272.9338,0.00056844,8.772e-05,0.0,0 STARLINK-4655,1 53613U 22104AB  23267.53939224  .00008772  00000-0  56844-3 0  9998,2 53613  53.2167 301.7392 0001466  87.1822 272.9338 15.08848849 60199,6917.853,95.437,540.732,538.704,0.0
53613.0,STARLINK-4655,PAYLOAD,2023-09-25 09:36:44,15.08850187,0.0001908,53.2176,297.8712,73.295,286.8251,0.00064221,9.95e-05,0.0,0 STARLINK-4655,1 53613U 22104AB  23268.40051531  .00009950  00000-0  64221-3 0  9998,2 53613  53.2176 297.8712 0001908  73.2950 286.8251 15.08850187 59755,6917.849,95.437,541.034,538.394,0.0
53613.0,STARLINK-4655,PAYLOAD,2023-09-25 11:12:07,15.08846828,0.0001973,53.218,297.574,73.9962,286.1247,0.00040536,6.17e-05,0.0,0 STARLINK-4655,1 53613U 22104AB  23268.46675569  .00006170  00000-0  40536-3 0  9991,2 53613  53.2180 297.5740 0001973  73.9962 286.1247 15.08846828 60331,6917.86,95.437,541.089,538.36,0.0
53613.0,STARLINK-4655,PAYLOAD,2023-09-25 19:09:03,15.0883892,0.0001081,53.2164,296.0886,88.7014,271.4102,5.3396e-05,5.62e-06,0.0,0 STARLINK-4655,1 53613U 22104AB  23268.79795276  .00000562  00000-0  53396-4 0  9993,2 53613  53.2164 296.0886 0001081  88.7014 271.4102 15.08838920 60386,6917.884,95.438,540.497,539.001,0.0
53613.0,STARLINK-4655,PAYLOAD,2023-09-26 01:30:35,15.08843514,0.0001458,53.2163,294.8989,86.4601,273.6558,0.00022633,3.316e-05,0.0,0 STARLINK-4655,1 53613U 22104AB  23269.06291361  .00003316  00000-0  22633-3 0  9999,2 53613  53.2163 294.8989 0001458  86.4601 273.6558 15.08843514 59854,6917.87,95.437,540.743,538.726,0.0
53613.0,STARLINK-4655,PAYLOAD,2023-09-26 09:27:31,15.08854364,0.0001597,53.2158,293.4109,82.9868,277.1306,0.00048298,7.41e-05,0.0,0 STARLINK-4655,1 53613U 22104AB  23269.39411013  .00007410  00000-0  48298-3 0  9997,2 53613  53.2158 293.4109 0001597  82.9868 277.1306 15.08854364 60472,6917.836,95.437,540.806,538.597,0.0
53613.0,STARLINK-4655,PAYLOAD,2023-09-27 01:21:22,15.08844865,0.0001649,53.2161,290.4386,97.1394,262.9786,0.00016154,2.284e-05,0.0,0 STARLINK-4655,1 53613U 22104AB  23270.05651156  .00002284  00000-0  16154-3 0  9996,2 53613  53.2161 290.4386 0001649  97.1394 262.9786 15.08844865 60008,6917.866,95.437,540.871,538.59,0.0
53613.0,STARLINK-4655,PAYLOAD,2023-09-27 07:42:55,15.08839828,0.0001579,53.2161,289.2469,97.8835,262.2336,0.00013167,1.808e-05,0.0,0 STARLINK-4655,1 53613U 22104AB  23270.32147363  .00001808  00000-0  13167-3 0  9998,2 53613  53.2161 289.2469 0001579  97.8835 262.2336 15.08839828 60619,6917.881,95.438,540.838,538.654,0.0
53613.0,STARLINK-4655,PAYLOAD,2023-09-28 01:12:10,15.0883018,0.0001605,53.2158,285.9774,96.4917,263.6258,-2.2158e-07,-2.92e-06,0.0,0 STARLINK-4655,1 53613U 22104AB  23271.05012113 -.00000292  00000-0 -22158-6 0  9994,2 53613  53.2158 285.9774 0001605  96.4917 263.6258 15.08830180 60152,6917.91,95.438,540.886,538.665,0.0
53613.0,STARLINK-4655,PAYLOAD,2023-09-28 07:33:43,15.08833155,0.0001607,53.2165,284.7878,99.1881,260.9292,-1.9535e-05,-5.99e-06,0.0,0 STARLINK-4655,1 53613U 22104AB  23271.31508241 -.00000599  00000-0 -19535-4 0  9998,2 53613  53.2165 284.7878 0001607  99.1881 260.9292 15.08833155 60764,6917.901,95.438,540.878,538.655,0.0
53613.0,STARLINK-4655,PAYLOAD,2023-09-29 05:49:06,15.08840393,0.0001552,53.2165,280.6239,98.7421,261.3747,0.00017671,2.525e-05,0.0,0 STARLINK-4655,1 53613U 22104AB  23272.24243901  .00002525  00000-0  17671-3 0  9997,2 53613  53.2165 280.6239 0001552  98.7421 261.3747 15.08840393 60339,6917.879,95.438,540.818,538.671,0.0
53613.0,STARLINK-4655,PAYLOAD,2023-09-29 12:10:38,15.08848199,0.0001558,53.2162,279.4334,100.7781,259.3386,0.00023081,3.388e-05,0.0,0 STARLINK-4655,1 53613U 22104AB  23272.50739306  .00003388  00000-0  23081-3 0  9995,2 53613  53.2162 279.4334 0001558 100.7781 259.3386 15.08848199 60942,6917.855,95.437,540.798,538.643,0.0
53613.0,STARLINK-4655,PAYLOAD,2023-09-30 04:04:30,15.08840179,0.0001901,53.2138,276.454,119.5685,240.5496,5.5043e-05,5.88e-06,0.0,0 STARLINK-4655,1 53613U 22104AB  23273.16980052  .00000588  00000-0  55043-4 0  9997,2 53613  53.2138 276.4540 0001901 119.5685 240.5496 15.08840179 60476,6917.88,95.438,541.06,538.43,0.0
53613.0,STARLINK-4655,PAYLOAD,2023-09-30 05:39:54,15.08835449,0.0001348,53.2155,276.163,93.5958,266.5188,5.2126e-05,5.42e-06,0.0,0 STARLINK-4655,1 53613U 22104AB  23273.23604488  .00000542  00000-0  52126-4 0  9990,2 53613  53.2155 276.1630 0001348  93.5958 266.5188 15.08835449 61056,6917.894,95.438,540.692,538.827,0.0
53613.0,STARLINK-4655,PAYLOAD,2023-10-01 00:44:31,15.08859065,0.0001839,53.2158,272.5945,104.3994,255.7202,-0.00042394,-7.032e-05,0.0,0 STARLINK-4655,1 53613U 22104AB  23274.03091489 -.00007032  00000-0 -42394-3 0  9998,2 53613  53.2158 272.5945 0001839 104.3994 255.7202 15.08859065 60601,6917.822,95.436,540.959,538.415,0.0
53613.0,STARLINK-4655,PAYLOAD,2023-10-01 08:41:26,15.08855147,0.0001362,53.2157,271.1081,96.8847,263.23,0.0003543,5.358e-05,0.0,0 STARLINK-4655,1 53613U 22104AB  23274.36211716  .00005358  00000-0  35430-3 0  9991,2 53613  53.2157 271.1081 0001362  96.8847 263.2300 15.08855147 61228,6917.834,95.437,540.641,538.757,0.0
53613.0,STARLINK-4655,PAYLOAD,2023-10-01 16:38:22,15.08846189,0.0001525,53.2159,269.6189,85.5825,274.5342,0.00014585,2.034e-05,0.0,0 STARLINK-4655,1 53613U 22104AB  23274.69331841  .00002034  00000-0  14585-3 0  9995,2 53613  53.2159 269.6189 0001525  85.5825 274.5342 15.08846189 60702,6917.861,95.437,540.781,538.671,0.0
53613.0,STARLINK-4655,PAYLOAD,2023-10-02 00:35:19,15.08832794,0.0001505,53.2157,268.1343,88.0568,272.0597,-2.5427e-05,-6.93e-06,0.0,0 STARLINK-4655,1 53613U 22104AB  23275.02452686 -.00000693  00000-0 -25427-4 0  9993,2 53613  53.2157 268.1343 0001505  88.0568 272.0597 15.08832794 60753,6917.902,95.438,540.809,538.726,0.0
53613.0,STARLINK-4655,PAYLOAD,2023-10-02 08:32:14,15.08843513,0.000145,53.2157,266.6477,90.0024,270.1135,0.00025949,3.845e-05,0.0,0 STARLINK-4655,1 53613U 22104AB  23275.35572416  .00003845  00000-0  25949-3 0  9991,2 53613  53.2157 266.6477 0001450  90.0024 270.1135 15.08843513 60807,6917.87,95.437,540.738,538.732,0.0
53613.0,STARLINK-4655,PAYLOAD,2023-10-02 16:29:10,15.08835285,0.0001428,53.2152,265.1575,89.1796,270.9359,0.00038628,5.864e-05,0.0,0 STARLINK-4655,1 53613U 22104AB  23275.68692693  .00005864  00000-0  38628-3 0  9998,2 53613  53.2152 265.1575 0001428  89.1796 270.9359 15.08835285 60853,6917.895,95.438,540.748,538.772,0.0
